{
  "type": "FeatureCollection",
  "features": [
    {
      "type": "Feature",
      "properties": {
        "norad_id": 58701,
        "name": "TIANMU-1 16",
        "group": "weather",
        "lat": 10.716308246924065,
        "lon": -178.69585821174968,
        "alt_km": 495.9321907457488,
        "timestamp": "2025-12-27T22:26:48.258308+00:00",
        "meta_object_name": "TIANMU-1 16",
        "meta_object_id": "2024-004B",
        "meta_epoch": "2025-12-27T12:56:54.665376",
        "meta_mean_motion": 15.24636112,
        "meta_eccentricity": 0.0004498,
        "meta_inclination": 97.4571,
        "meta_ra_of_asc_node": 182.3306,
        "meta_arg_of_pericenter": 228.9533,
        "meta_mean_anomaly": 131.1316,
        "meta_ephemeris_type": 0,
        "meta_classification_type": "U",
        "meta_norad_cat_id": 58701,
        "meta_element_set_no": 999,
        "meta_rev_at_epoch": 10960,
        "meta_bstar": 0.00033436,
        "meta_mean_motion_dot": 8.185e-05,
        "meta_mean_motion_ddot": 0,
        "tle_line1": "1 58701U 24004B   25361.53952159  .00008185  00000+0  33436-3 0  9990",
        "tle_line2": "2 58701  97.4571 182.3306 0004498 228.9533 131.1316 15.24636112109609"
      },
      "geometry": {
        "type": "Point",
        "coordinates": [
          -178.69585821174968,
          10.716308246924065
        ]
      }
    },
    {
      "type": "Feature",
      "properties": {
        "norad_id": 58702,
        "name": "TIANMU-1 17",
        "group": "weather",
        "lat": 79.24793050620222,
        "lon": 46.77949986599568,
        "alt_km": 486.0065468929515,
        "timestamp": "2025-12-27T22:26:48.258321+00:00",
        "meta_object_name": "TIANMU-1 17",
        "meta_object_id": "2024-004C",
        "meta_epoch": "2025-12-27T12:34:07.294656",
        "meta_mean_motion": 15.24679145,
        "meta_eccentricity": 0.0003686,
        "meta_inclination": 97.4605,
        "meta_ra_of_asc_node": 182.7326,
        "meta_arg_of_pericenter": 229.0163,
        "meta_mean_anomaly": 131.0756,
        "meta_ephemeris_type": 0,
        "meta_classification_type": "U",
        "meta_norad_cat_id": 58702,
        "meta_element_set_no": 999,
        "meta_rev_at_epoch": 10959,
        "meta_bstar": 0.00034344,
        "meta_mean_motion_dot": 8.42e-05,
        "meta_mean_motion_ddot": 0,
        "tle_line1": "1 58702U 24004C   25361.52369554  .00008420  00000+0  34344-3 0  9992",
        "tle_line2": "2 58702  97.4605 182.7326 0003686 229.0163 131.0756 15.24679145109591"
      },
      "geometry": {
        "type": "Point",
        "coordinates": [
          46.77949986599568,
          79.24793050620222
        ]
      }
    },
    {
      "type": "Feature",
      "properties": {
        "norad_id": 58703,
        "name": "TIANMU-1 18",
        "group": "weather",
        "lat": -8.489891787869736,
        "lon": 2.219870051421333,
        "alt_km": 494.1839579824027,
        "timestamp": "2025-12-27T22:26:48.258331+00:00",
        "meta_object_name": "TIANMU-1 18",
        "meta_object_id": "2024-004D",
        "meta_epoch": "2025-12-27T12:10:18.622272",
        "meta_mean_motion": 15.24660988,
        "meta_eccentricity": 0.0003081,
        "meta_inclination": 97.4622,
        "meta_ra_of_asc_node": 182.9145,
        "meta_arg_of_pericenter": 225.2055,
        "meta_mean_anomaly": 134.8932,
        "meta_ephemeris_type": 0,
        "meta_classification_type": "U",
        "meta_norad_cat_id": 58703,
        "meta_element_set_no": 999,
        "meta_rev_at_epoch": 10959,
        "meta_bstar": 0.00032058,
        "meta_mean_motion_dot": 7.849e-05,
        "meta_mean_motion_ddot": 0,
        "tle_line1": "1 58703U 24004D   25361.50715998  .00007849  00000+0  32058-3 0  9992",
        "tle_line2": "2 58703  97.4622 182.9145 0003081 225.2055 134.8932 15.24660988109591"
      },
      "geometry": {
        "type": "Point",
        "coordinates": [
          2.219870051421333,
          -8.489891787869736
        ]
      }
    },
    {
      "type": "Feature",
      "properties": {
        "norad_id": 58990,
        "name": "INSAT-3DS",
        "group": "weather",
        "lat": 0.06267636987460497,
        "lon": 155.44212930733855,
        "alt_km": 35789.426811308804,
        "timestamp": "2025-12-27T22:26:48.258343+00:00",
        "meta_object_name": "INSAT-3DS",
        "meta_object_id": "2024-033A",
        "meta_epoch": "2025-12-27T03:07:12.485568",
        "meta_mean_motion": 1.00270739,
        "meta_eccentricity": 0.00013755,
        "meta_inclination": 0.0646,
        "meta_ra_of_asc_node": 98.7441,
        "meta_arg_of_pericenter": 178.0436,
        "meta_mean_anomaly": 307.9854,
        "meta_ephemeris_type": 0,
        "meta_classification_type": "U",
        "meta_norad_cat_id": 58990,
        "meta_element_set_no": 999,
        "meta_rev_at_epoch": 4534,
        "meta_bstar": 0,
        "meta_mean_motion_dot": -1.34e-06,
        "meta_mean_motion_ddot": 0,
        "tle_line1": "1 58990U 24033A   25361.13000562 -.00000134  00000+0  00000+0 0  9994",
        "tle_line2": "2 58990   0.0646  98.7441 0001375 178.0436 307.9854  1.00270739 45348"
      },
      "geometry": {
        "type": "Point",
        "coordinates": [
          155.44212930733855,
          0.06267636987460497
        ]
      }
    },
    {
      "type": "Feature",
      "properties": {
        "norad_id": 59051,
        "name": "METEOR-M2 4",
        "group": "weather",
        "lat": -4.1392133163463,
        "lon": 137.9741135093454,
        "alt_km": 823.4812953166665,
        "timestamp": "2025-12-27T22:26:48.258353+00:00",
        "meta_object_name": "METEOR-M2 4",
        "meta_object_id": "2024-039A",
        "meta_epoch": "2025-12-27T13:08:32.576928",
        "meta_mean_motion": 14.224036,
        "meta_eccentricity": 0.0006294,
        "meta_inclination": 98.6787,
        "meta_ra_of_asc_node": 318.2258,
        "meta_arg_of_pericenter": 313.4521,
        "meta_mean_anomaly": 46.6132,
        "meta_ephemeris_type": 0,
        "meta_classification_type": "U",
        "meta_norad_cat_id": 59051,
        "meta_element_set_no": 999,
        "meta_rev_at_epoch": 9486,
        "meta_bstar": 4.4699e-05,
        "meta_mean_motion_dot": 5.6e-07,
        "meta_mean_motion_ddot": 0,
        "tle_line1": "1 59051U 24039A   25361.54759927  .00000056  00000+0  44699-4 0  9999",
        "tle_line2": "2 59051  98.6787 318.2258 0006294 313.4521  46.6132 14.22403600 94867"
      },
      "geometry": {
        "type": "Point",
        "coordinates": [
          137.9741135093454,
          -4.1392133163463
        ]
      }
    },
    {
      "type": "Feature",
      "properties": {
        "norad_id": 60133,
        "name": "GOES 19",
        "group": "weather",
        "lat": -0.00014042093509332204,
        "lon": -1.8351951187214472,
        "alt_km": 35782.847121510036,
        "timestamp": "2025-12-27T22:26:48.258379+00:00",
        "meta_object_name": "GOES 19",
        "meta_object_id": "2024-119A",
        "meta_epoch": "2025-12-27T10:55:54.710976",
        "meta_mean_motion": 1.00269901,
        "meta_eccentricity": 0.000118,
        "meta_inclination": 0.0204,
        "meta_ra_of_asc_node": 187.4138,
        "meta_arg_of_pericenter": 130.9211,
        "meta_mean_anomaly": 226.6358,
        "meta_ephemeris_type": 0,
        "meta_classification_type": "U",
        "meta_norad_cat_id": 60133,
        "meta_element_set_no": 999,
        "meta_rev_at_epoch": 524,
        "meta_bstar": 0,
        "meta_mean_motion_dot": -2.26e-06,
        "meta_mean_motion_ddot": 0,
        "tle_line1": "1 60133U 24119A   25361.45549434 -.00000226  00000+0  00000+0 0  9994",
        "tle_line2": "2 60133   0.0204 187.4138 0001180 130.9211 226.6358  1.00269901  5241"
      },
      "geometry": {
        "type": "Point",
        "coordinates": [
          -1.8351951187214472,
          -0.00014042093509332204
        ]
      }
    },
    {
      "type": "Feature",
      "properties": {
        "norad_id": 65815,
        "name": "FENGYUN 3H",
        "group": "weather",
        "lat": -71.30949462079641,
        "lon": -32.025915807759326,
        "alt_km": 833.5669504621119,
        "timestamp": "2025-12-27T22:26:48.258392+00:00",
        "meta_object_name": "FENGYUN 3H",
        "meta_object_id": "2025-219A",
        "meta_epoch": "2025-12-27T10:57:12.394080",
        "meta_mean_motion": 14.19908728,
        "meta_eccentricity": 8.87e-05,
        "meta_inclination": 98.6603,
        "meta_ra_of_asc_node": 300.7285,
        "meta_arg_of_pericenter": 109.9954,
        "meta_mean_anomaly": 250.1318,
        "meta_ephemeris_type": 0,
        "meta_classification_type": "U",
        "meta_norad_cat_id": 65815,
        "meta_element_set_no": 999,
        "meta_rev_at_epoch": 1301,
        "meta_bstar": 7.7602e-05,
        "meta_mean_motion_dot": 1.22e-06,
        "meta_mean_motion_ddot": 0,
        "tle_line1": "1 65815U 25219A   25361.45639345  .00000122  00000+0  77602-4 0  9990",
        "tle_line2": "2 65815  98.6603 300.7285 0000887 109.9954 250.1318 14.19908728 13018"
      },
      "geometry": {
        "type": "Point",
        "coordinates": [
          -32.025915807759326,
          -71.30949462079641
        ]
      }
    }
  ]
}